     2.100          NAVIGATION                              RINEX VERSION / TYPE
fic2rin                                 09/26/2008 02:13:44 PGM / RUN BY / DATE
                                                            END OF HEADER
15 08  9 25 18  0  0.0 -.183439347893D-03 -.648014975013D-11  .000000000000D+00
     .330000000000D+02  .679062500000D+02  .426303471536D-08  .225413061203D+01
     .356882810593D-05  .938374549150D-03  .107251107693D-04  .515371081734D+04
     .410400000000D+06  .242143869400D-07 -.212060764611D+00 -.931322574615D-08
     .957664058415D+00  .169625000000D+03 -.116545275260D+01 -.794604527039D-08
     .118219210019D-09  .100000000000D+01  .149800000000D+04  .000000000000D+00
     .240000000000D+01  .000000000000D+00 -.977888703346D-08  .330000000000D+02
     .403206000000D+06  .400000000000D+01
16 08  9 25 18  0  0.0  .105000101030D-03 -.216004991671D-11  .000000000000D+00
     .790000000000D+02 -.100093750000D+03  .454661795632D-08 -.307649971574D+01
    -.507012009621D-05  .472949829418D-02  .767223536968D-05  .515367789650D+04
     .410400000000D+06 -.782310962677D-07  .191434222269D+01  .596046447754D-07
     .966220318086D+00  .233750000000D+03 -.394707773552D+00 -.803676333488D-08
    -.210008747707D-09  .100000000000D+01  .149800000000D+04  .000000000000D+00
     .240000000000D+01  .000000000000D+00 -.977888703346D-08  .790000000000D+02
     .403206000000D+06  .400000000000D+01
17 08  9 25 18  0  0.0  .391053035855D-04  .113686837722D-12  .000000000000D+00
     .930000000000D+02 -.968750000000D+01  .443304179684D-08  .205009872220D+01
    -.413507223129D-06  .382827757858D-02  .120010226965D-04  .515360155869D+04
     .410400000000D+06 -.894069671631D-07  .295571713805D+01  .117346644402D-06
     .960086707808D+00  .147531250000D+03 -.278959232590D+01 -.790747223510D-08
     .350371737246D-09  .100000000000D+01  .149800000000D+04  .000000000000D+00
     .240000000000D+01  .000000000000D+00 -.102445483208D-07  .930000000000D+02
     .403206000000D+06  .400000000000D+01
18 08  9 25 18  0  0.0 -.130087602884D-03  .409272615798D-11  .000000000000D+00
     .600000000000D+02 -.392187500000D+02  .474448334106D-08 -.291570016678D+01
    -.201351940632D-05  .988874281757D-02  .859610736370D-05  .515372049332D+04
     .410400000000D+06 -.428408384323D-07 -.121251132937D+01 -.121071934700D-06
     .945671519746D+00  .204062500000D+03 -.246121845142D+01 -.807462205471D-08
    -.475019786481D-09  .100000000000D+01  .149800000000D+04  .000000000000D+00
     .240000000000D+01  .000000000000D+00 -.107102096081D-07  .600000000000D+02
     .403206000000D+06  .400000000000D+01
19 08  9 25 18  0  0.0  .355700030923D-04  .113686837722D-12  .000000000000D+00
     .800000000000D+02  .141562500000D+02  .458554814934D-08  .149476833378D+01
     .847503542900D-06  .490845169406D-02  .111442059278D-04  .515373941803D+04
     .410400000000D+06  .521540641785D-07  .301243891341D+01  .502914190292D-07
     .957865835780D+00  .158218750000D+03 -.479213166180D+00 -.796033157976D-08
     .266439669710D-09  .100000000000D+01  .149800000000D+04  .000000000000D+00
     .240000000000D+01  .000000000000D+00 -.144354999065D-07  .800000000000D+02
     .403206000000D+06  .400000000000D+01
20 08  9 25 18  0  0.0  .103647354990D-03 -.102318153949D-11  .000000000000D+00
     .730000000000D+02 -.267812500000D+02  .484948771491D-08 -.285016882749D+01
    -.124797224998D-05  .352709251456D-02  .830553472042D-05  .515376348305D+04
     .410400000000D+06  .409781932831D-07 -.126621171222D+01 -.372529029846D-08
     .945194573342D+00  .211531250000D+03  .136146694142D+01 -.813783897366D-08
    -.562523431359D-09  .100000000000D+01  .149800000000D+04  .000000000000D+00
     .340000000000D+01  .000000000000D+00 -.651925802231D-08  .730000000000D+02
     .403206000000D+06  .400000000000D+01
21 08  9 25 18  0  0.0  .492134131491D-04 -.147792889038D-11  .000000000000D+00
     .570000000000D+02  .310625000000D+02  .545522723211D-08 -.171199713592D+01
     .146217644215D-05  .143027154263D-01  .470504164696D-05  .515367878914D+04
     .410400000000D+06  .119209289551D-06 -.227144308594D+01 -.158324837685D-06
     .935446399703D+00  .274062500000D+03 -.267572974133D+01 -.850356849347D-08
     .270011247052D-09  .100000000000D+01  .149800000000D+04  .000000000000D+00
     .240000000000D+01  .000000000000D+00 -.116415321827D-07  .570000000000D+02
     .403206000000D+06  .400000000000D+01
22 08  9 25 18  0  0.0  .210776925087D-03  .000000000000D+00  .000000000000D+00
     .900000000000D+02 -.307187500000D+02  .485305929226D-08  .215514284537D+01
    -.165402889252D-05  .514159596059D-02  .830367207527D-05  .515366743088D+04
     .410400000000D+06  .316649675369D-07 -.120628332138D+01 -.596046447754D-07
     .943322927655D+00  .209468750000D+03 -.182860975193D+01 -.819748431527D-08
    -.512521348571D-09  .100000000000D+01  .149800000000D+04  .000000000000D+00
     .485000000000D+01  .000000000000D+00 -.176951289177D-07  .900000000000D+02
     .403206000000D+06  .400000000000D+01
23 08  9 25 18  0  0.0  .374484807253D-03  .136424205266D-11  .000000000000D+00
     .530000000000D+02  .858125000000D+02  .395552190622D-08  .832133986795D+00
     .445358455181D-05  .587452924810D-02  .101495534182D-04  .515369623756D+04
     .410400000000D+06  .189989805222D-06 -.195492367408D+00  .614672899246D-07
     .971490240548D+00  .187718750000D+03  .284051986017D+01 -.786354183380D-08
     .174292974288D-09  .100000000000D+01  .149800000000D+04  .000000000000D+00
     .240000000000D+01  .000000000000D+00 -.200234353542D-07  .530000000000D+02
     .403206000000D+06  .400000000000D+01
24 08  9 25 18  0  0.0  .128132756799D-03  .306954461848D-11  .000000000000D+00
     .640000000000D+02  .328125000000D+02  .507378277199D-08 -.304760391646D+01
     .165216624737D-05  .749797455501D-02  .523962080479D-05  .515365531540D+04
     .410400000000D+06 -.149011611938D-07 -.224342225065D+01  .949949026108D-07
     .952075661613D+00  .277281250000D+03 -.706091226757D+00 -.826391565383D-08
     .585738684082D-10  .100000000000D+01  .149800000000D+04  .000000000000D+00
     .340000000000D+01  .000000000000D+00 -.139698386192D-08  .640000000000D+02
     .403206000000D+06  .400000000000D+01
25 08  9 25 18  0  0.0 -.127965118736D-03  .413820089307D-10  .000000000000D+00
     .790000000000D+02  .453437500000D+02  .457661920599D-08 -.254337947687D+01
     .247173011303D-05  .115909836022D-01  .261329114437D-05  .515369335365D+04
     .410400000000D+06  .596046447754D-07  .752150627556D+00  .106170773506D-06
     .966422484587D+00  .327937500000D+03 -.124934437648D+01 -.822748556494D-08
     .348943106310D-09  .100000000000D+01  .149800000000D+04  .000000000000D+00
     .340000000000D+01  .000000000000D+00 -.745058059692D-08  .790000000000D+02
     .403206000000D+06  .400000000000D+01
26 08  9 25 18  0  0.0  .330703333020D-03  .534328137292D-11  .000000000000D+00
     .880000000000D+02  .739062500000D+02  .355979113673D-08  .338176831474D+00
     .396743416786D-05  .191515235929D-01  .107586383820D-04  .515363611603D+04
     .410400000000D+06 -.201165676117D-06 -.150950989886D+00  .242143869400D-06
     .993661322874D+00  .193156250000D+03  .954611824671D+00 -.787604235449D-08
     .104647216119D-09  .100000000000D+01  .149800000000D+04  .000000000000D+00
     .240000000000D+01  .000000000000D+00 -.605359673500D-08  .880000000000D+02
     .403206000000D+06  .400000000000D+01
28 08  9 25 18  0  0.0 -.227703712881D-04 -.341060513165D-12  .000000000000D+00
     .890000000000D+02 -.128468750000D+03  .447161483213D-08  .249173567157D+01
    -.663474202156D-05  .140102317091D-01  .785663723946D-05  .515363992691D+04
     .410400000000D+06  .931322574615D-07  .192285847448D+01 -.223517417908D-06
     .964394036025D+00  .230093750000D+03 -.209080716804D+01 -.792711591048D-08
    -.251796202608D-09  .100000000000D+01  .149800000000D+04  .000000000000D+00
     .240000000000D+01  .000000000000D+00 -.102445483208D-07  .890000000000D+02
     .403206000000D+06  .400000000000D+01
29 08  9 25 18  0  0.0 -.365730375051D-04  .113686837722D-11  .000000000000D+00
     .116000000000D+03  .000000000000D+00  .436982487789D-08 -.157106000169D+01
    -.409781932831D-07  .344593846239D-02  .115670263767D-04  .515360110283D+04
     .410400000000D+06 -.726431608200D-07  .296387898184D+01  .558793544769D-07
     .960237386907D+00  .155718750000D+03 -.137098390086D+01 -.787175646168D-08
     .245724521127D-09  .100000000000D+01  .149800000000D+04  .000000000000D+00
     .240000000000D+01  .000000000000D+00 -.884756445885D-08  .116000000000D+03
     .403206000000D+06  .400000000000D+01
30 08  9 25 18  0  0.0  .985516235232D-04  .204636307899D-11  .000000000000D+00
     .560000000000D+02 -.110000000000D+03  .486913139030D-08  .292677409091D+01
    -.575929880142D-05  .111291104695D-01  .617653131485D-05  .515369072151D+04
     .410400000000D+06  .128522515297D-06  .185397485841D+01 -.145286321640D-06
     .949470167941D+00  .253156250000D+03  .140162053754D+01 -.817891211309D-08
    -.229295265354D-09  .100000000000D+01  .149800000000D+04  .000000000000D+00
     .240000000000D+01  .000000000000D+00 -.791624188423D-08  .560000000000D+02
     .403206000000D+06  .400000000000D+01
31 08  9 25 18  0  0.0 -.286106951535D-04 -.238742359215D-11  .000000000000D+00
     .300000000000D+01  .300937500000D+02  .468840957679D-08 -.905615269117D+00
     .150874257088D-05  .671081931796D-02  .305101275444D-05  .515354320717D+04
     .410400000000D+06 -.800937414169D-07  .843844502654D+00 -.149011611938D-07
     .969392749568D+00  .329812500000D+03 -.123792066132D+01 -.847142429740D-08
     .304298389535D-09  .100000000000D+01  .149800000000D+04  .000000000000D+00
     .240000000000D+01  .000000000000D+00 -.130385160446D-07  .300000000000D+01
     .403206000000D+06  .400000000000D+01
